{
  "type": "FeatureCollection",
  "name": "exported",
  "features": [
    {
      "type": "Feature",
      "properties": {
        "Name": "encroachment plot",
        "description": "on farm",
        "tessellate": -1,
        "extrude": 0,
        "visibility": -1
      },
      "geometry": {
        "type": "Polygon",
        "coordinates": [
          [
            [
              -0.532364593818784,
              5.401409254409373
            ],
            [
              -0.532115651294589,
              5.401246813125908
            ],
            [
              -0.532104419544339,
              5.40126642677933
            ],
            [
              -0.532102407887578,
              5.401254314929247
            ],
            [
              -0.532101066783071,
              5.401259008795023
            ],
            [
              -0.53211959078908,
              5.401240568608046
            ],
            [
              -0.532124117016792,
              5.401222044602036
            ],
            [
              -0.532133420929313,
              5.401200880296528
            ],
            [
              -0.532151022925973,
              5.401182230561972
            ],
            [
              -0.5321582313627,
              5.401173052377999
            ],
            [
              -0.532168373465538,
              5.401141284964979
            ],
            [
              -0.532172732055187,
              5.40110545232892
            ],
            [
              -0.532178012654185,
              5.401073810644448
            ],
            [
              -0.532187819480896,
              5.401057968847454
            ],
            [
              -0.532191675156355,
              5.401048078201711
            ],
            [
              -0.532191842794418,
              5.401017316617072
            ],
            [
              -0.53219385445118,
              5.400995817035437
            ],
            [
              -0.532184634357691,
              5.400959188118577
            ],
            [
              -0.532182706519961,
              5.400948501192033
            ],
            [
              -0.532175833359361,
              5.400936179794371
            ],
            [
              -0.532176084816456,
              5.400922056287527
            ],
            [
              -0.532184299081564,
              5.400895401835442
            ],
            [
              -0.532190082594752,
              5.40088408626616
            ],
            [
              -0.532190753147006,
              5.400875746272504
            ],
            [
              -0.532184885814786,
              5.400856174528599
            ],
            [
              -0.532184466719627,
              5.400845361873507
            ],
            [
              -0.532177174463868,
              5.400845571421087
            ],
            [
              -0.532167283818126,
              5.400849678553641
            ],
            [
              -0.532152196392417,
              5.400850768201053
            ],
            [
              -0.532134678214788,
              5.40085575543344
            ],
            [
              -0.532116489484906,
              5.400854288600385
            ],
            [
              -0.532104922458529,
              5.400855420157313
            ],
            [
              -0.532087404280901,
              5.400860575027764
            ],
            [
              -0.532068209722638,
              5.400857515633106
            ],
            [
              -0.532058402895927,
              5.400857725180686
            ],
            [
              -0.532040968537331,
              5.400852235034108
            ],
            [
              -0.532027976587415,
              5.400850055739284
            ],
            [
              -0.532015236094594,
              5.400851522572339
            ],
            [
              -0.532007021829486,
              5.400855881161988
            ],
            [
              -0.53198765963316,
              5.400859485380352
            ],
            [
              -0.531973661854863,
              5.400860323570669
            ],
            [
              -0.531965782865882,
              5.400865101255476
            ],
            [
              -0.531946253031492,
              5.400869040749967
            ],
            [
              -0.531941894441843,
              5.40087578818202
            ],
            [
              -0.531945247203112,
              5.400880146771669
            ],
            [
              -0.531937032938004,
              5.400893683545291
            ],
            [
              -0.531933009624481,
              5.40090483147651
            ],
            [
              -0.531924460083246,
              5.400907932780683
            ],
            [
              -0.531912809237838,
              5.400931192561984
            ],
            [
              -0.531912138685584,
              5.400942005217075
            ],
            [
              -0.531907444819808,
              5.400962792336941
            ],
            [
              -0.531908785924315,
              5.400967360474169
            ],
            [
              -0.531904175877571,
              5.400973898358643
            ],
            [
              -0.531898308545351,
              5.40100792888552
            ],
            [
              -0.531894117593765,
              5.401018657721579
            ],
            [
              -0.53189336322248,
              5.40102653671056
            ],
            [
              -0.531896548345685,
              5.401035714894533
            ],
            [
              -0.531895626336336,
              5.401066644117236
            ],
            [
              -0.531897051259875,
              5.401073265820742
            ],
            [
              -0.531885987147689,
              5.401081396266818
            ],
            [
              -0.53187626414001,
              5.401083282195032
            ],
            [
              -0.531870983541012,
              5.401088898070157
            ],
            [
              -0.531873581930995,
              5.401104278862476
            ],
            [
              -0.53186209872365,
              5.401119156740606
            ],
            [
              -0.53185572847724,
              5.40112255141139
            ],
            [
              -0.531855477020144,
              5.40113206487149
            ],
            [
              -0.53185966797173,
              5.401140279136598
            ],
            [
              -0.53186260163784,
              5.401164628565311
            ],
            [
              -0.531871067360044,
              5.401183445937932
            ],
            [
              -0.531887244433165,
              5.401206496171653
            ],
            [
              -0.531886741518974,
              5.401216722093523
            ],
            [
              -0.53188263438642,
              5.401212489232421
            ],
            [
              -0.531874839216471,
              5.401213704608381
            ],
            [
              -0.531867798417807,
              5.401223720982671
            ],
            [
              -0.531863020732999,
              5.401225816458464
            ],
            [
              -0.531849190592766,
              5.401245052926242
            ],
            [
              -0.531853968277574,
              5.401266594417393
            ],
            [
              -0.531850950792432,
              5.401273132301867
            ],
            [
              -0.531852040439844,
              5.401280089281499
            ],
            [
              -0.531858243048191,
              5.401284908875823
            ],
            [
              -0.531857740134001,
              5.401289560832083
            ],
            [
              -0.531870312988758,
              5.401304312981665
            ],
            [
              -0.531887244433165,
              5.401310096494853
            ],
            [
              -0.531893027946353,
              5.401317598298192
            ],
            [
              -0.531924376264215,
              5.401326902210712
            ],
            [
              -0.531941642984748,
              5.401334236375988
            ],
            [
              -0.531950192525983,
              5.401331931352615
            ],
            [
              -0.531980786472559,
              5.40133633185178
            ],
            [
              -0.532009704038501,
              5.401335912756622
            ],
            [
              -0.532027222216129,
              5.401341989636421
            ],
            [
              -0.532047506421804,
              5.40134240873158
            ],
            [
              -0.532054966315627,
              5.401344085112214
            ],
            [
              -0.532101318240166,
              5.40134069044143
            ],
            [
              -0.532115735113621,
              5.401347312144935
            ],
            [
              -0.532130571082234,
              5.401347689330578
            ],
            [
              -0.532364593818784,
              5.401409254409373
            ]
          ]
        ]
      }
    },
    {
      "type": "Feature",
      "properties": {
        "Name": "yaw 2nd",
        "description": "",
        "tessellate": -1,
        "extrude": 0,
        "visibility": -1
      },
      "geometry": {
        "type": "Polygon",
        "coordinates": [
          [
            [
              -0.532738510519266,
              5.401675924658775
            ],
            [
              -0.532500632107258,
              5.402243181578512
            ],
            [
              -0.532175078988075,
              5.402153059102336
            ],
            [
              -0.531855644658208,
              5.402342830784619
            ],
            [
              -0.531856399029493,
              5.402339184656739
            ],
            [
              -0.531860589981079,
              5.402342285960913
            ],
            [
              -0.531881460919976,
              5.402347231283784
            ],
            [
              -0.531884059309959,
              5.402336753904819
            ],
            [
              -0.531886741518974,
              5.402338891290128
            ],
            [
              -0.531894620507956,
              5.402354565449059
            ],
            [
              -0.531908450648189,
              5.402362109161913
            ],
            [
              -0.531912976875901,
              5.402376693673432
            ],
            [
              -0.531921442598104,
              5.402389434166253
            ],
            [
              -0.531924208626151,
              5.402398863807321
            ],
            [
              -0.531932506710291,
              5.402412065304816
            ],
            [
              -0.531947091221809,
              5.402424428611994
            ],
            [
              -0.531964860856533,
              5.402431595139205
            ],
            [
              -0.531969973817468,
              5.402440438047051
            ],
            [
              -0.531975757330656,
              5.402443958446383
            ],
            [
              -0.531995454803109,
              5.402449993416667
            ],
            [
              -0.532002160325646,
              5.402457579039037
            ],
            [
              -0.532008446753025,
              5.402457118034363
            ],
            [
              -0.532028814777732,
              5.402465919032693
            ],
            [
              -0.53203753195703,
              5.402464787475765
            ],
            [
              -0.532046500593424,
              5.402466799132526
            ],
            [
              -0.532070975750685,
              5.402478408068419
            ],
            [
              -0.532089499756694,
              5.402477192692459
            ],
            [
              -0.532110035419464,
              5.402488172985613
            ],
            [
              -0.532127469778061,
              5.402490017004311
            ],
            [
              -0.532131996005774,
              5.402493621222675
            ],
            [
              -0.532144736498594,
              5.40249630343169
            ],
            [
              -0.53216066211462,
              5.402504266239703
            ],
            [
              -0.532175078988075,
              5.402513821609318
            ],
            [
              -0.532200308516622,
              5.402534860186279
            ],
            [
              -0.532225957140326,
              5.402545630931854
            ],
            [
              -0.532240122556686,
              5.402554012835026
            ],
            [
              -0.532243140041828,
              5.402560424990952
            ],
            [
              -0.532253701239824,
              5.402564699761569
            ],
            [
              -0.532264513894916,
              5.402565454132855
            ],
            [
              -0.532283037900925,
              5.402572746388614
            ],
            [
              -0.532293012365699,
              5.402579493820667
            ],
            [
              -0.532301813364029,
              5.402582972310483
            ],
            [
              -0.532335005700588,
              5.402593072503805
            ],
            [
              -0.532344980165362,
              5.402599568478763
            ],
            [
              -0.532371886074543,
              5.40261457208544
            ],
            [
              -0.532383872196078,
              5.402616374194622
            ],
            [
              -0.532397786155343,
              5.402614530175924
            ],
            [
              -0.532415974885225,
              5.402626558206975
            ],
            [
              -0.53242452442646,
              5.402626935392618
            ],
            [
              -0.532436342909932,
              5.402615116909146
            ],
            [
              -0.532439695671201,
              5.4026062740013
            ],
            [
              -0.532451765611768,
              5.402608998119831
            ],
            [
              -0.532470541074872,
              5.402624169364572
            ],
            [
              -0.532482359558344,
              5.402618763037026
            ],
            [
              -0.532500045374036,
              5.402606106363237
            ],
            [
              -0.532506080344319,
              5.402599652297795
            ],
            [
              -0.532521838322282,
              5.402594497427344
            ],
            [
              -0.532528208568692,
              5.402586618438363
            ],
            [
              -0.532552348449826,
              5.402578781358898
            ],
            [
              -0.532557461410761,
              5.402575135231018
            ],
            [
              -0.532584702596068,
              5.402568932622671
            ],
            [
              -0.532592413946986,
              5.40256226900965
            ],
            [
              -0.532601466402411,
              5.402558580972254
            ],
            [
              -0.53261554799974,
              5.402559293434024
            ],
            [
              -0.532622756436467,
              5.402548732236028
            ],
            [
              -0.532633485272527,
              5.402545630931854
            ],
            [
              -0.532646812498569,
              5.402547558769584
            ],
            [
              -0.53265611641109,
              5.402539512142539
            ],
            [
              -0.532658211886883,
              5.402528448030353
            ],
            [
              -0.532673383131623,
              5.402525472454727
            ],
            [
              -0.53270154632628,
              5.40251734200865
            ],
            [
              -0.532728368416429,
              5.402499656192958
            ],
            [
              -0.532733062282205,
              5.402492741122842
            ],
            [
              -0.532744880765676,
              5.402485113590956
            ],
            [
              -0.532769691199064,
              5.402451795525849
            ],
            [
              -0.532777570188046,
              5.402446179650724
            ],
            [
              -0.532776899635792,
              5.402440102770925
            ],
            [
              -0.532785784453154,
              5.402435911819339
            ],
            [
              -0.532792238518596,
              5.402423799969256
            ],
            [
              -0.532792657613754,
              5.402402593754232
            ],
            [
              -0.532803051173687,
              5.402394966222346
            ],
            [
              -0.532818809151649,
              5.402374137192965
            ],
            [
              -0.532829286530614,
              5.402370281517506
            ],
            [
              -0.532839177176356,
              5.402363659814
            ],
            [
              -0.532840602099895,
              5.402358253486454
            ],
            [
              -0.532847810536623,
              5.402350961230695
            ],
            [
              -0.532858707010746,
              5.402357121929526
            ],
            [
              -0.532852755859494,
              5.402349242940545
            ],
            [
              -0.532856611534953,
              5.402341112494469
            ],
            [
              -0.532847307622433,
              5.402326611801982
            ],
            [
              -0.532849989831448,
              5.402319990098476
            ],
            [
              -0.532855102792382,
              5.402318690903485
            ],
            [
              -0.532868597656488,
              5.402318355627358
            ],
            [
              -0.532872537150979,
              5.40232309140265
            ],
            [
              -0.532880080863833,
              5.40230649523437
            ],
            [
              -0.532897934317589,
              5.402289982885122
            ],
            [
              -0.532904304563999,
              5.402290695346892
            ],
            [
              -0.532914865761995,
              5.402287258766592
            ],
            [
              -0.532924169674516,
              5.402276865206659
            ],
            [
              -0.532938502728939,
              5.402270243503153
            ],
            [
              -0.532962139695883,
              5.402247654274106
            ],
            [
              -0.532974293455482,
              5.402240403927863
            ],
            [
              -0.532982004806399,
              5.402231812477112
            ],
            [
              -0.532997092232108,
              5.402223472483456
            ],
            [
              -0.532999522984028,
              5.402215048670769
            ],
            [
              -0.533007569611073,
              5.402199416421354
            ],
            [
              -0.533022405579686,
              5.402186592109501
            ],
            [
              -0.5330406781286,
              5.402183784171939
            ],
            [
              -0.533053418621421,
              5.402174103073776
            ],
            [
              -0.533061297610402,
              5.402174396440387
            ],
            [
              -0.533075546845794,
              5.402166894637048
            ],
            [
              -0.533084683120251,
              5.402167229913175
            ],
            [
              -0.533105051144958,
              5.402161781676114
            ],
            [
              -0.533125922083855,
              5.40214765816927
            ],
            [
              -0.533133549615741,
              5.402147616259754
            ],
            [
              -0.533138075843453,
              5.402144137769938
            ],
            [
              -0.533136483281851,
              5.402138521894813
            ],
            [
              -0.533145619556308,
              5.402132486924529
            ],
            [
              -0.533146793022752,
              5.402125278487802
            ],
            [
              -0.53314327262342,
              5.402124985121191
            ],
            [
              -0.533148134127259,
              5.402114046737552
            ],
            [
              -0.533143524080515,
              5.402097702026367
            ],
            [
              -0.53312961012125,
              5.402083997614682
            ],
            [
              -0.533130364492536,
              5.402074903249741
            ],
            [
              -0.533128017559648,
              5.402066144160926
            ],
            [
              -0.533122904598713,
              5.402062204666436
            ],
            [
              -0.533115612342954,
              5.402046865783632
            ],
            [
              -0.533115193247795,
              5.402038777247071
            ],
            [
              -0.533101949840784,
              5.402018325403333
            ],
            [
              -0.53310714662075,
              5.402005836367607
            ],
            [
              -0.53310270421207,
              5.401998208835721
            ],
            [
              -0.533102536574006,
              5.401987521909177
            ],
            [
              -0.53311200812459,
              5.401975703425705
            ],
            [
              -0.533110247924924,
              5.401970674283803
            ],
            [
              -0.533088874071836,
              5.401951689273119
            ],
            [
              -0.533080156892538,
              5.401947624050081
            ],
            [
              -0.533071188256145,
              5.401940625160933
            ],
            [
              -0.533059369772673,
              5.401934715919197
            ],
            [
              -0.53304361179471,
              5.401917574927211
            ],
            [
              -0.533032463863492,
              5.401912671513855
            ],
            [
              -0.533024417236447,
              5.401905588805676
            ],
            [
              -0.533007988706231,
              5.401895153336227
            ],
            [
              -0.532984854653478,
              5.401887316256762
            ],
            [
              -0.532954344525933,
              5.401868792250752
            ],
            [
              -0.532943196594715,
              5.401867954060435
            ],
            [
              -0.532927103340626,
              5.401860913261771
            ],
            [
              -0.532913692295551,
              5.401858105324209
            ],
            [
              -0.532895503565669,
              5.401850645430386
            ],
            [
              -0.532871866598725,
              5.401846789754927
            ],
            [
              -0.532862143591046,
              5.401836815290153
            ],
            [
              -0.532830627635121,
              5.401819925755262
            ],
            [
              -0.532808499410748,
              5.401813848875463
            ],
            [
              -0.532802045345306,
              5.401803958229721
            ],
            [
              -0.532794333994389,
              5.401784386485815
            ],
            [
              -0.532786957919598,
              5.401774244382977
            ],
            [
              -0.532776396721601,
              5.401753289625049
            ],
            [
              -0.532861053943634,
              5.40172981707194
            ],
            [
              -0.532771367579699,
              5.401721396483481
            ],
            [
              -0.532772708684206,
              5.401688078418374
            ],
            [
              -0.53276021964848,
              5.401681079529226
            ],
            [
              -0.532754100859165,
              5.401680157519877
            ],
            [
              -0.532747730612755,
              5.401686066761613
            ],
            [
              -0.532738510519266,
              5.401675924658775
            ]
          ]
        ]
      }
    },
    {
      "type": "Feature",
      "properties": {
        "Name": "yaw weeding",
        "description": "aug 26",
        "tessellate": -1,
        "extrude": 0,
        "visibility": -1
      },
      "geometry": {
        "type": "Polygon",
        "coordinates": [
          [
            [
              -0.532599790021777,
              5.401560128666461
            ],
            [
              -0.532645806670189,
              5.401577060110867
            ],
            [
              -0.532624181360006,
              5.401588124223053
            ],
            [
              -0.532628959044814,
              5.401587830856442
            ],
            [
              -0.532612698152661,
              5.40157328825444
            ],
            [
              -0.532604651525617,
              5.401569809764624
            ],
            [
              -0.532594844698906,
              5.401573372073472
            ],
            [
              -0.53258671425283,
              5.401570731773973
            ],
            [
              -0.532567519694567,
              5.401573749259114
            ],
            [
              -0.532563077285886,
              5.401569558307528
            ],
            [
              -0.532556371763349,
              5.401568803936243
            ],
            [
              -0.53254421800375,
              5.401560883037746
            ],
            [
              -0.532537763938308,
              5.401561050675809
            ],
            [
              -0.532533070072532,
              5.401555644348264
            ],
            [
              -0.532523430883884,
              5.401551662944257
            ],
            [
              -0.53250515833497,
              5.401548310182989
            ],
            [
              -0.532486885786057,
              5.401543197222054
            ],
            [
              -0.532479844987392,
              5.401543406769633
            ],
            [
              -0.532474312931299,
              5.401536743156612
            ],
            [
              -0.532459896057844,
              5.401532636024058
            ],
            [
              -0.532446820288897,
              5.40152664296329
            ],
            [
              -0.53244061768055,
              5.401527145877481
            ],
            [
              -0.532420333474874,
              5.401522996835411
            ],
            [
              -0.532402982935309,
              5.401526056230068
            ],
            [
              -0.532393511384726,
              5.401525720953941
            ],
            [
              -0.532370209693909,
              5.401533055119216
            ],
            [
              -0.53235026076436,
              5.401531755924225
            ],
            [
              -0.532335340976715,
              5.401528906077147
            ],
            [
              -0.532322935760021,
              5.401536785066128
            ],
            [
              -0.532300807535648,
              5.401538880541921
            ],
            [
              -0.532276500016451,
              5.401545544154942
            ],
            [
              -0.532259233295918,
              5.401552207767963
            ],
            [
              -0.532243810594082,
              5.4015520401299
            ],
            [
              -0.532226795330644,
              5.401547430083156
            ],
            [
              -0.532218581065536,
              5.401543113403022
            ],
            [
              -0.532210869714618,
              5.401535527780652
            ],
            [
              -0.532213468104601,
              5.401526307687163
            ],
            [
              -0.532190250232816,
              5.401497012935579
            ],
            [
              -0.532180527225137,
              5.401467382907867
            ],
            [
              -0.532167116180062,
              5.401440476998687
            ],
            [
              -0.532163344323635,
              5.401430167257786
            ],
            [
              -0.532164517790079,
              5.401414325460792
            ],
            [
              -0.532159907743335,
              5.401393244974315
            ],
            [
              -0.532152112573385,
              5.401378576643765
            ],
            [
              -0.532150771468878,
              5.401371787302196
            ],
            [
              -0.532129229977727,
              5.401356532238424
            ],
            [
              -0.532124787569046,
              5.40134584531188
            ],
            [
              -0.532118752598763,
              5.40133754722774
            ],
            [
              -0.53208782337606,
              5.401332727633417
            ],
            [
              -0.532063599675894,
              5.401322836987674
            ],
            [
              -0.53203996270895,
              5.40132338181138
            ],
            [
              -0.532028982415795,
              5.401326189748943
            ],
            [
              -0.532023198902607,
              5.401331512257457
            ],
            [
              -0.532005010172725,
              5.401331009343266
            ],
            [
              -0.531985480338335,
              5.401326944120228
            ],
            [
              -0.531961508095264,
              5.401318059302866
            ],
            [
              -0.531936781480908,
              5.40132480673492
            ],
            [
              -0.53191046230495,
              5.401315963827074
            ],
            [
              -0.531902667135,
              5.401318562217057
            ],
            [
              -0.531879365444183,
              5.401314455084503
            ],
            [
              -0.531850783154368,
              5.401315125636756
            ],
            [
              -0.531835025176406,
              5.401309635490179
            ],
            [
              -0.531815998256207,
              5.40131357498467
            ],
            [
              -0.531807448714972,
              5.401310347951949
            ],
            [
              -0.5318025033921,
              5.401304312981665
            ],
            [
              -0.531779872253537,
              5.401311563327909
            ],
            [
              -0.531769143417478,
              5.401306701824069
            ],
            [
              -0.531759420409799,
              5.401308629661798
            ],
            [
              -0.531738046556711,
              5.401301002129912
            ],
            [
              -0.531717259436846,
              5.401298319920897
            ],
            [
              -0.531692784279585,
              5.401305612176657
            ],
            [
              -0.531675769016147,
              5.401305486448109
            ],
            [
              -0.531652551144361,
              5.401310264132917
            ],
            [
              -0.531639223918319,
              5.401308001019061
            ],
            [
              -0.531629081815481,
              5.401313868351281
            ],
            [
              -0.53162413649261,
              5.40130749810487
            ],
            [
              -0.531624723225832,
              5.401288345456123
            ],
            [
              -0.531620532274246,
              5.401280927471817
            ],
            [
              -0.53160653449595,
              5.401277868077159
            ],
            [
              -0.531598152592778,
              5.401280340738595
            ],
            [
              -0.531578622758389,
              5.401277826167643
            ],
            [
              -0.531552387401462,
              5.401288513094187
            ],
            [
              -0.531521374359727,
              5.401296601630747
            ],
            [
              -0.531510729342699,
              5.401295470073819
            ],
            [
              -0.531499916687608,
              5.401291740126908
            ],
            [
              -0.531479129567742,
              5.401291027665138
            ],
            [
              -0.531450714915991,
              5.40129454806447
            ],
            [
              -0.531423557549715,
              5.401295679621398
            ],
            [
              -0.531416852027178,
              5.401293961331248
            ],
            [
              -0.531399501487613,
              5.401297356002033
            ],
            [
              -0.531393382698298,
              5.401300750672817
            ],
            [
              -0.531382905319333,
              5.401301085948944
            ],
            [
              -0.531358430162072,
              5.401311102323234
            ],
            [
              -0.531351137906313,
              5.401305905543268
            ],
            [
              -0.531333200633526,
              5.401307246647775
            ],
            [
              -0.531307635828853,
              5.40130234323442
            ],
            [
              -0.531301600858569,
              5.401298278011382
            ],
            [
              -0.531291039660573,
              5.401298319920897
            ],
            [
              -0.531282322481275,
              5.401302888058126
            ],
            [
              -0.53127427585423,
              5.401300457306206
            ],
            [
              -0.531261786818504,
              5.401287632994354
            ],
            [
              -0.531239407137036,
              5.401286501437426
            ],
            [
              -0.531210321933031,
              5.401277574710548
            ],
            [
              -0.531202862039208,
              5.401277616620064
            ],
            [
              -0.531194312497973,
              5.401281472295523
            ],
            [
              -0.531168999150395,
              5.401275479234755
            ],
            [
              -0.53114335052669,
              5.401273090392351
            ],
            [
              -0.53113698028028,
              5.401274557225406
            ],
            [
              -0.531128263100982,
              5.401271916925907
            ],
            [
              -0.531098926439881,
              5.401249621063471
            ],
            [
              -0.531080570071936,
              5.401247735135257
            ],
            [
              -0.53106757812202,
              5.401260936632752
            ],
            [
              -0.531061962246895,
              5.401271288283169
            ],
            [
              -0.531061543151736,
              5.401281388476491
            ],
            [
              -0.531051652505994,
              5.401307623833418
            ],
            [
              -0.531046371906996,
              5.401325644925237
            ],
            [
              -0.531032960861921,
              5.401351964101195
            ],
            [
              -0.531034218147397,
              5.401360262185335
            ],
            [
              -0.531025920063257,
              5.401375726796687
            ],
            [
              -0.530988033860922,
              5.40141424164176
            ],
            [
              -0.530975880101323,
              5.401433813385665
            ],
            [
              -0.530962971970439,
              5.401455941610038
            ],
            [
              -0.530946040526032,
              5.401466377079487
            ],
            [
              -0.530938748270273,
              5.401475219987333
            ],
            [
              -0.530930450186133,
              5.401481003500521
            ],
            [
              -0.530905723571777,
              5.401493995450437
            ],
            [
              -0.530891390517354,
              5.401517758145928
            ],
            [
              -0.530877895653248,
              5.401529283262789
            ],
            [
              -0.530868005007505,
              5.401546340435743
            ],
            [
              -0.530865574255586,
              5.401553926058114
            ],
            [
              -0.530848558992147,
              5.401580329053104
            ],
            [
              -0.530828777700663,
              5.401594704017043
            ],
            [
              -0.530805476009846,
              5.401621945202351
            ],
            [
              -0.530791478231549,
              5.401653251610696
            ],
            [
              -0.530786365270615,
              5.401660585775971
            ],
            [
              -0.530778570100665,
              5.401691347360611
            ],
            [
              -0.530768260359764,
              5.401712888851762
            ],
            [
              -0.530762225389481,
              5.401719971559942
            ],
            [
              -0.530755268409848,
              5.401736148633063
            ],
            [
              -0.530740851536393,
              5.401749978773296
            ],
            [
              -0.530733810737729,
              5.401764353737235
            ],
            [
              -0.530732804909348,
              5.40176996961236
            ],
            [
              -0.530748143792152,
              5.401793941855431
            ],
            [
              -0.530750826001167,
              5.401803413406014
            ],
            [
              -0.53075878880918,
              5.401810999028385
            ],
            [
              -0.530769601464272,
              5.401817830279469
            ],
            [
              -0.530784772709012,
              5.401834300719202
            ],
            [
              -0.530807487666607,
              5.401851776987314
            ],
            [
              -0.530835064128041,
              5.401860242709517
            ],
            [
              -0.530842272564769,
              5.401879898272455
            ],
            [
              -0.530858617275953,
              5.40189259685576
            ],
            [
              -0.530862724408507,
              5.401898128911853
            ],
            [
              -0.530872028321028,
              5.401902487501502
            ],
            [
              -0.530891893431544,
              5.401905798353255
            ],
            [
              -0.530900023877621,
              5.401913258247077
            ],
            [
              -0.530905136838555,
              5.401921975426376
            ],
            [
              -0.530921313911676,
              5.401931572705507
            ],
            [
              -0.530931456014514,
              5.401930315420032
            ],
            [
              -0.53095324896276,
              5.401939367875457
            ],
            [
              -0.530968504026532,
              5.401938697323203
            ],
            [
              -0.530989961698651,
              5.401942175813019
            ],
            [
              -0.531008066609502,
              5.401942804455757
            ],
            [
              -0.531028602272272,
              5.401949845254421
            ],
            [
              -0.531051401048899,
              5.401942720636725
            ],
            [
              -0.531068248674273,
              5.401947707869112
            ],
            [
              -0.531081492081285,
              5.401961035095155
            ],
            [
              -0.531085263937712,
              5.401950809173286
            ],
            [
              -0.531083671376109,
              5.401944564655423
            ],
            [
              -0.531093142926693,
              5.401935679838061
            ],
            [
              -0.531099261716008,
              5.40193266235292
            ],
            [
              -0.531106218695641,
              5.401919418945909
            ],
            [
              -0.531106470152736,
              5.401909025385976
            ],
            [
              -0.531113678589463,
              5.401899805292487
            ],
            [
              -0.531129939481616,
              5.401893225498497
            ],
            [
              -0.531137064099312,
              5.40187964681536
            ],
            [
              -0.531146787106991,
              5.401875791139901
            ],
            [
              -0.531163550913334,
              5.401850435882807
            ],
            [
              -0.531175704672933,
              5.401846370659769
            ],
            [
              -0.531184757128358,
              5.401840880513191
            ],
            [
              -0.531205041334033,
              5.401809029281139
            ],
            [
              -0.531207723543048,
              5.401799641549587
            ],
            [
              -0.531221637502313,
              5.401785643771291
            ],
            [
              -0.531224068254232,
              5.401770765893161
            ],
            [
              -0.531231695786119,
              5.401761839166284
            ],
            [
              -0.531251728534698,
              5.401753205806017
            ],
            [
              -0.53125667385757,
              5.401745536364615
            ],
            [
              -0.53126648068428,
              5.401741010136902
            ],
            [
              -0.531274359673262,
              5.401745452545583
            ],
            [
              -0.531281903386116,
              5.401753960177302
            ],
            [
              -0.531293135136366,
              5.401759366504848
            ],
            [
              -0.531303528696299,
              5.401763222180307
            ],
            [
              -0.53131534717977,
              5.401764856651425
            ],
            [
              -0.531322974711657,
              5.401768502779305
            ],
            [
              -0.531335882842541,
              5.401780153624713
            ],
            [
              -0.531348204240203,
              5.401785182766616
            ],
            [
              -0.531371841207147,
              5.401787026785314
            ],
            [
              -0.531380726024508,
              5.40179222356528
            ],
            [
              -0.531405787914991,
              5.401798426173627
            ],
            [
              -0.531416265293956,
              5.40179830044508
            ],
            [
              -0.531425653025508,
              5.401795660145581
            ],
            [
              -0.53144384175539,
              5.401796959340572
            ],
            [
              -0.531455492600799,
              5.401795408688486
            ],
            [
              -0.531477704644203,
              5.401804377324879
            ],
            [
              -0.531488433480263,
              5.4018171178177
            ],
            [
              -0.53149220533669,
              5.401825960725546
            ],
            [
              -0.531492372974753,
              5.401835013180971
            ],
            [
              -0.531497150659561,
              5.401843856088817
            ],
            [
              -0.531515087932348,
              5.401851986534894
            ],
            [
              -0.531526738777757,
              5.401860997080803
            ],
            [
              -0.531529504805803,
              5.401870720088482
            ],
            [
              -0.531522883102298,
              5.401888992637396
            ],
            [
              -0.531500838696957,
              5.40191191714257
            ],
            [
              -0.531494216993451,
              5.401930063962936
            ],
            [
              -0.531491618603468,
              5.401941505260766
            ],
            [
              -0.531476028263569,
              5.401955377310514
            ],
            [
              -0.531471418216825,
              5.401961412280798
            ],
            [
              -0.531469322741032,
              5.401969542726874
            ],
            [
              -0.531485499814153,
              5.401981486938894
            ],
            [
              -0.531488684937358,
              5.401986809447408
            ],
            [
              -0.531504778191447,
              5.401987563818693
            ],
            [
              -0.531514333561063,
              5.40199133567512
            ],
            [
              -0.531523386016488,
              5.401990539394319
            ],
            [
              -0.531548699364066,
              5.40200256742537
            ],
            [
              -0.531554650515318,
              5.402003573253751
            ],
            [
              -0.531556494534016,
              5.40200843475759
            ],
            [
              -0.531564792618155,
              5.402010111138225
            ],
            [
              -0.531572252511978,
              5.402018367312849
            ],
            [
              -0.531590860337019,
              5.402023354545236
            ],
            [
              -0.531610222533345,
              5.402033035643399
            ],
            [
              -0.531649114564061,
              5.402049296535552
            ],
            [
              -0.531676020473242,
              5.402060151100159
            ],
            [
              -0.531688425689936,
              5.402063629589975
            ],
            [
              -0.531694041565061,
              5.402062414214015
            ],
            [
              -0.531692281365395,
              5.402065557427704
            ],
            [
              -0.53169789724052,
              5.402071592397988
            ],
            [
              -0.531707787886262,
              5.402071550488472
            ],
            [
              -0.531710218638182,
              5.402052691206336
            ],
            [
              -0.531714828684926,
              5.402042926289141
            ],
            [
              -0.531719354912639,
              5.402027671225369
            ],
            [
              -0.531725054606795,
              5.402019959874451
            ],
            [
              -0.5317472666502,
              5.402006632648408
            ],
            [
              -0.531760007143021,
              5.40199720300734
            ],
            [
              -0.5317697301507,
              5.401997580192983
            ],
            [
              -0.531781632453203,
              5.401995023712516
            ],
            [
              -0.531805604696274,
              5.401997747831047
            ],
            [
              -0.531823793426156,
              5.40199548471719
            ],
            [
              -0.531833097338676,
              5.401998125016689
            ],
            [
              -0.531845754012465,
              5.401989910751581
            ],
            [
              -0.531845167279243,
              5.401978301815689
            ],
            [
              -0.531851705163717,
              5.401970716193318
            ],
            [
              -0.531881712377071,
              5.401970255188644
            ],
            [
              -0.53190216422081,
              5.401963130570948
            ],
            [
              -0.531922029331326,
              5.401949887163937
            ],
            [
              -0.5319285672158,
              5.401948043145239
            ],
            [
              -0.53193099796772,
              5.401928471401334
            ],
            [
              -0.531930830329657,
              5.401914976537228
            ],
            [
              -0.531928148120642,
              5.401908103376627
            ],
            [
              -0.5319285672158,
              5.401898338459432
            ],
            [
              -0.53193342871964,
              5.401890291832387
            ],
            [
              -0.531955305486917,
              5.40188115555793
            ],
            [
              -0.531970225274563,
              5.401869001798332
            ],
            [
              -0.531978188082576,
              5.401868708431721
            ],
            [
              -0.531984809786081,
              5.401874198578298
            ],
            [
              -0.532004004344344,
              5.401877677068114
            ],
            [
              -0.532016074284911,
              5.401886310428381
            ],
            [
              -0.53203652612865,
              5.401875623501837
            ],
            [
              -0.532059911638498,
              5.401850268244743
            ],
            [
              -0.53206485696137,
              5.401841173879802
            ],
            [
              -0.532073322683573,
              5.401831911876798
            ],
            [
              -0.532083548605442,
              5.401829020120203
            ],
            [
              -0.532096037641168,
              5.401816028170288
            ],
            [
              -0.532105257734656,
              5.401809993200004
            ],
            [
              -0.532113639637828,
              5.401811962947249
            ],
            [
              -0.532120177522302,
              5.4018171178177
            ],
            [
              -0.532121434807777,
              5.401828894391656
            ],
            [
              -0.53212646394968,
              5.401841509155929
            ],
            [
              -0.532136019319296,
              5.40185525547713
            ],
            [
              -0.53213719278574,
              5.401863134466112
            ],
            [
              -0.532130068168044,
              5.401901146396995
            ],
            [
              -0.532127469778061,
              5.401906259357929
            ],
            [
              -0.532110454514623,
              5.40191899985075
            ],
            [
              -0.532103665173054,
              5.401926334016025
            ],
            [
              -0.532098719850183,
              5.40193538647145
            ],
            [
              -0.532092349603772,
              5.401938613504171
            ],
            [
              -0.532101402059197,
              5.401946282945573
            ],
            [
              -0.532112047076225,
              5.401948420330882
            ],
            [
              -0.532114310190082,
              5.401953533291817
            ],
            [
              -0.532126715406775,
              5.401953323744237
            ],
            [
              -0.532133588567376,
              5.401948713697493
            ],
            [
              -0.532157476991415,
              5.40194439701736
            ],
            [
              -0.532166110351682,
              5.40193731430918
            ],
            [
              -0.532190836966038,
              5.401941421441734
            ],
            [
              -0.532216150313616,
              5.401927675120533
            ],
            [
              -0.532210366800427,
              5.401922394521534
            ],
            [
              -0.532209277153015,
              5.401914264075458
            ],
            [
              -0.532216234132648,
              5.401893770322204
            ],
            [
              -0.532225202769041,
              5.401880317367613
            ],
            [
              -0.532228806987405,
              5.40187185164541
            ],
            [
              -0.532240374013782,
              5.40186820551753
            ],
            [
              -0.532245067879558,
              5.401849346235394
            ],
            [
              -0.532251102849841,
              5.401831744238734
            ],
            [
              -0.532270213589072,
              5.401806640438735
            ],
            [
              -0.532273985445499,
              5.401799557730556
            ],
            [
              -0.532290246337652,
              5.401780363172293
            ],
            [
              -0.532304244115949,
              5.401773531921208
            ],
            [
              -0.532314302399755,
              5.401762593537569
            ],
            [
              -0.532319750636816,
              5.401741554960608
            ],
            [
              -0.532343639060855,
              5.401734011247754
            ],
            [
              -0.532351350411773,
              5.4017333406955
            ],
            [
              -0.532361157238483,
              5.401736316271126
            ],
            [
              -0.532374568283558,
              5.401733005419374
            ],
            [
              -0.532389655709267,
              5.40173648390919
            ],
            [
              -0.532399797812104,
              5.401747087016702
            ],
            [
              -0.532418321818113,
              5.40175773203373
            ],
            [
              -0.532431229948997,
              5.401753205806017
            ],
            [
              -0.532431146129966,
              5.401730993762612
            ],
            [
              -0.532433660700917,
              5.401721019297838
            ],
            [
              -0.532440366223454,
              5.40171179920435
            ],
            [
              -0.532448915764689,
              5.401706853881478
            ],
            [
              -0.532462326809764,
              5.401705889962614
            ],
            [
              -0.532482024282217,
              5.401696627959609
            ],
            [
              -0.532521586865187,
              5.401691053994
            ],
            [
              -0.532540613785386,
              5.401695999316871
            ],
            [
              -0.53256374783814,
              5.401711883023381
            ],
            [
              -0.532573806121945,
              5.401714565232396
            ],
            [
              -0.53259945474565,
              5.40171280503273
            ],
            [
              -0.532609932124615,
              5.401709619909525
            ],
            [
              -0.532625606283545,
              5.401698723435402
            ],
            [
              -0.532639604061842,
              5.40169327519834
            ],
            [
              -0.532647734507918,
              5.401691850274801
            ],
            [
              -0.532662235200405,
              5.401679612696171
            ],
            [
              -0.532662905752659,
              5.401663980446756
            ],
            [
              -0.532681178301573,
              5.401640888303518
            ],
            [
              -0.532687800005078,
              5.401639170013368
            ],
            [
              -0.532678160816431,
              5.401633302681148
            ],
            [
              -0.532659217715263,
              5.401600655168295
            ],
            [
              -0.532641028985381,
              5.401593446731567
            ],
            [
              -0.532626193016768,
              5.401581879705191
            ],
            [
              -0.532615967094898,
              5.401574168354273
            ],
            [
              -0.532620409503579,
              5.401577898301184
            ],
            [
              -0.532599790021777,
              5.401560128666461
            ]
          ]
        ]
      }
    },
    {
      "type": "Feature",
      "properties": {
        "Name": "Farm Boundary (Site Plan)",
        "description": "7.62 acres \u2014 Awutu Senya West, Central Region",
        "area_ha": 3.093,
        "area_acres": 7.64,
        "source": "Survey plan SGC E612/15 \u2014 Awutu Senya West"
      },
      "geometry": {
        "type": "Polygon",
        "coordinates": [
          [
            [
              -0.5318143684006043,
              5.402209063522312
            ],
            [
              -0.5315978874042017,
              5.402924057217453
            ],
            [
              -0.5334362797263121,
              5.402181026734403
            ],
            [
              -0.5326159377842814,
              5.401240974787553
            ],
            [
              -0.5319278029396578,
              5.40057255378909
            ],
            [
              -0.5312077241631512,
              5.40107232154296
            ]
          ]
        ]
      }
    }
  ]
}